CCSDS_OMM_VERS,COMMENT,CREATION_DATE,ORIGINATOR,OBJECT_NAME,OBJECT_ID,CENTER_NAME,REF_FRAME,TIME_SYSTEM,MEAN_ELEMENT_THEORY,EPOCH,MEAN_MOTION,ECCENTRICITY,INCLINATION,RA_OF_ASC_NODE,ARG_OF_PERICENTER,MEAN_ANOMALY,EPHEMERIS_TYPE,CLASSIFICATION_TYPE,NORAD_CAT_ID,ELEMENT_SET_NO,REV_AT_EPOCH,BSTAR,MEAN_MOTION_DOT,MEAN_MOTION_DDOT,SEMIMAJOR_AXIS,PERIOD,APOAPSIS,PERIAPSIS,OBJECT_TYPE,RCS_SIZE,COUNTRY_CODE,LAUNCH_DATE,SITE,DECAY_DATE,FILE,GP_ID,TLE_LINE0,TLE_LINE1,TLE_LINE2,norad_id
3.0,GENERATED VIA SPACE-TRACK.ORG API,2026-06-19T11:14:33,18 SPCS,NAVSTAR 83 (USA 440),2024-242A,EARTH,TEME,UTC,SGP4,2026-06-19 01:56:57.413184+00:00,2.00571470,0.00174383,54.8479,334.1037,4.2476,172.4131,0,U,62339,999,1129,0.00000000000000,-0.00000093,0.0000000000000,26559.653,717.949,20227.834,20135.203,PAYLOAD,LARGE,US,2024-12-17,AFETR,,5255912,330699833,0 NAVSTAR 83 (USA 440),1 62339U 24242A   26170.08122006 -.00000093  00000-0  00000-0 0  9995,2 62339  54.8479 334.1037 0017438   4.2476 172.4131  2.00571470 11297,62339
3.0,GENERATED VIA SPACE-TRACK.ORG API,2026-06-20T10:42:50,18 SPCS,NAVSTAR 83 (USA 440),2024-242A,EARTH,TEME,UTC,SGP4,2026-06-20 01:54:13.834656+00:00,2.00571569,0.00174930,54.8474,334.0632,4.3355,173.0364,0,U,62339,999,1131,0.00000000000000,-0.00000095,0.0000000000000,26559.645,717.948,20227.970,20135.049,PAYLOAD,LARGE,US,2024-12-17,AFETR,,5256487,330847262,0 NAVSTAR 83 (USA 440),1 62339U 24242A   26171.07932679 -.00000095  00000-0  00000-0 0  9992,2 62339  54.8474 334.0632 0017493   4.3355 173.0364  2.00571569 11317,62339
3.0,GENERATED VIA SPACE-TRACK.ORG API,2026-06-23T03:40:42,18 SPCS,NAVSTAR 83 (USA 440),2024-242A,EARTH,TEME,UTC,SGP4,2026-06-22 01:48:41.783904+00:00,2.00571761,0.00175752,54.8465,333.9823,4.4653,174.2883,0,U,62339,999,1135,0.00000000000000,-0.00000100,0.0000000000000,26559.628,717.948,20228.172,20134.814,PAYLOAD,LARGE,US,2024-12-17,AFETR,,5257616,330973480,0 NAVSTAR 83 (USA 440),1 62339U 24242A   26173.07548361 -.00000100  00000-0  00000-0 0  9992,2 62339  54.8465 333.9823 0017575   4.4653 174.2883  2.00571761 11357,62339
3.0,GENERATED VIA SPACE-TRACK.ORG API,2026-06-24T02:28:56,18 SPCS,NAVSTAR 83 (USA 440),2024-242A,EARTH,TEME,UTC,SGP4,2026-06-23 01:45:58.658112+00:00,2.00571849,0.00175601,54.8459,333.9419,4.4754,174.9937,0,U,62339,999,1137,0.00000000000000,-0.00000103,0.0000000000000,26559.620,717.947,20228.124,20134.846,PAYLOAD,LARGE,US,2024-12-17,AFETR,,5257684,331042672,0 NAVSTAR 83 (USA 440),1 62339U 24242A   26174.07359558 -.00000103  00000-0  00000-0 0  9994,2 62339  54.8459 333.9419 0017560   4.4754 174.9937  2.00571849 11373,62339
3.0,GENERATED VIA SPACE-TRACK.ORG API,2026-05-16T10:38:26,18 SPCS,COSMOS 2584(GLONASS),2025-042A,EARTH,TEME,UTC,SGP4,2026-05-15 07:00:47.839104+00:00,2.13103698,0.00062644,65.0668,73.9199,234.2965,125.6239,0,U,63130,999,934,0.00000000000000,-0.00000013,0.0000000000000,25507.889,675.727,19145.733,19113.775,PAYLOAD,LARGE,CIS,2025-03-02,PKMTR,,5196540,323451049,0 COSMOS 2584(GLONASS),1 63130U 25042A   26135.29222036 -.00000013  00000-0  00000-0 0  9994,2 63130  65.0668  73.9199 0006264 234.2965 125.6239  2.13103698  9340,63130
3.0,GENERATED VIA SPACE-TRACK.ORG API,2026-05-16T17:43:08,18 SPCS,COSMOS 2584(GLONASS),2025-042A,EARTH,TEME,UTC,SGP4,2026-05-16 05:32:15.530784+00:00,2.13103681,0.00062398,65.0673,73.8879,234.0729,125.8480,0,U,63130,999,936,0.00000000000000,-0.00000015,0.0000000000000,25507.890,675.727,19145.672,19113.839,PAYLOAD,LARGE,CIS,2025-03-02,PKMTR,,5196581,323484748,0 COSMOS 2584(GLONASS),1 63130U 25042A   26136.23073531 -.00000015  00000-0  00000-0 0  9995,2 63130  65.0673  73.8879 0006240 234.0729 125.8480  2.13103681  9364,63130
3.0,GENERATED VIA SPACE-TRACK.ORG API,2026-05-18T10:14:28,18 SPCS,COSMOS 2584(GLONASS),2025-042A,EARTH,TEME,UTC,SGP4,2026-05-17 15:19:27.321024+00:00,2.13103688,0.00062055,65.0681,73.8401,233.7243,126.2004,0,U,63130,999,939,0.00000000000000,-0.00000013,0.0000000000000,25507.890,675.727,19145.584,19113.926,PAYLOAD,LARGE,CIS,2025-03-02,PKMTR,,5201404,323702903,0 COSMOS 2584(GLONASS),1 63130U 25042A   26137.63851066 -.00000013  00000-0  00000-0 0  9995,2 63130  65.0681  73.8401 0006205 233.7243 126.2004  2.13103688  9399,63130
3.0,GENERATED VIA SPACE-TRACK.ORG API,2026-05-19T02:42:52,18 SPCS,COSMOS 2584(GLONASS),2025-042A,EARTH,TEME,UTC,SGP4,2026-05-18 02:35:11.309856+00:00,2.13103695,0.00061946,65.0684,73.8242,233.6526,126.2739,0,U,63130,999,940,0.00000000000000,-0.00000012,0.0000000000000,25507.889,675.727,19145.555,19113.953,PAYLOAD,LARGE,CIS,2025-03-02,PKMTR,,5203002,323772622,0 COSMOS 2584(GLONASS),1 63130U 25042A   26138.10776979 -.00000012  00000-0  00000-0 0  9996,2 63130  65.0684  73.8242 0006195 233.6526 126.2739  2.13103695  9401,63130
3.0,GENERATED VIA SPACE-TRACK.ORG API,2026-05-19T10:22:28,18 SPCS,COSMOS 2584(GLONASS),2025-042A,EARTH,TEME,UTC,SGP4,2026-05-19 01:06:39.345408+00:00,2.13103706,0.00061741,65.0688,73.7923,233.4667,126.4639,0,U,63130,999,942,0.00000000000000,-0.00000009,0.0000000000000,25507.888,675.727,19145.502,19114.004,PAYLOAD,LARGE,CIS,2025-03-02,PKMTR,,5203799,323825371,0 COSMOS 2584(GLONASS),1 63130U 25042A   26139.04628872 -.00000009  00000-0  00000-0 0  9994,2 63130  65.0688  73.7923 0006174 233.4667 126.4639  2.13103706  9427,63130
3.0,GENERATED VIA SPACE-TRACK.ORG API,2026-05-20T02:32:39,18 SPCS,COSMOS 2584(GLONASS),2025-042A,EARTH,TEME,UTC,SGP4,2026-05-19 01:06:39.348000+00:00,2.13103707,0.00061718,65.0688,73.7923,233.4526,126.4781,0,U,63130,999,942,0.00000000000000,-0.00000009,0.0000000000000,25507.888,675.727,19145.496,19114.010,PAYLOAD,LARGE,CIS,2025-03-02,PKMTR,,5205549,323899624,0 COSMOS 2584(GLONASS),1 63130U 25042A   26139.04628875 -.00000009  00000-0  00000-0 0  9997,2 63130  65.0688  73.7923 0006172 233.4526 126.4781  2.13103707  9428,63130
3.0,GENERATED VIA SPACE-TRACK.ORG API,2026-05-20T11:06:57,18 SPCS,COSMOS 2584(GLONASS),2025-042A,EARTH,TEME,UTC,SGP4,2026-05-19 23:38:07.356768+00:00,2.13103731,0.00061467,65.0693,73.7603,233.1890,126.7457,0,U,63130,999,944,0.00000000000000,-0.00000007,0.0000000000000,25507.886,675.727,19145.430,19114.072,PAYLOAD,LARGE,CIS,2025-03-02,PKMTR,,5206425,323953130,0 COSMOS 2584(GLONASS),1 63130U 25042A   26139.98480737 -.00000007  00000-0  00000-0 0  9991,2 63130  65.0693  73.7603 0006147 233.1890 126.7457  2.13103731  9444,63130
3.0,GENERATED VIA SPACE-TRACK.ORG API,2026-05-20T17:35:22,18 SPCS,COSMOS 2584(GLONASS),2025-042A,EARTH,TEME,UTC,SGP4,2026-05-20 10:53:51.315360+00:00,2.13103740,0.00061449,65.0696,73.7444,233.1697,126.7665,0,U,63130,999,945,0.00000000000000,-0.00000007,0.0000000000000,25507.886,675.727,19145.425,19114.076,PAYLOAD,LARGE,CIS,2025-03-02,PKMTR,,5207233,324006826,0 COSMOS 2584(GLONASS),1 63130U 25042A   26140.45406615 -.00000007  00000-0  00000-0 0  9998,2 63130  65.0696  73.7444 0006145 233.1697 126.7665  2.13103740  9455,63130
3.0,GENERATED VIA SPACE-TRACK.ORG API,2026-05-21T03:02:41,18 SPCS,COSMOS 2584(GLONASS),2025-042A,EARTH,TEME,UTC,SGP4,2026-05-20 10:53:51.319680+00:00,2.13103740,0.00061408,65.0695,73.7444,233.1175,126.8187,0,U,63130,999,945,0.00000000000000,-0.00000007,0.0000000000000,25507.886,675.727,19145.414,19114.087,PAYLOAD,LARGE,CIS,2025-03-02,PKMTR,,5207306,324040284,0 COSMOS 2584(GLONASS),1 63130U 25042A   26140.45406620 -.00000007  00000-0  00000-0 0  9994,2 63130  65.0695  73.7444 0006141 233.1175 126.8187  2.13103740  9451,63130
3.0,GENERATED VIA SPACE-TRACK.ORG API,2026-05-23T17:30:58,18 SPCS,COSMOS 2584(GLONASS),2025-042A,EARTH,TEME,UTC,SGP4,2026-05-20 22:09:35.274816+00:00,2.13103746,0.00061185,65.0699,73.7284,233.1924,126.7452,0,U,63130,999,946,0.00000000000000,-0.00000007,0.0000000000000,25507.885,675.727,19145.357,19114.143,PAYLOAD,LARGE,CIS,2025-03-02,PKMTR,,5210736,324560340,0 COSMOS 2584(GLONASS),1 63130U 25042A   26140.92332494 -.00000007  00000-0  00000-0 0  9993,2 63130  65.0699  73.7284 0006119 233.1924 126.7452  2.13103746  9465,63130
3.0,GENERATED VIA SPACE-TRACK.ORG API,2026-05-21T10:54:40,18 SPCS,COSMOS 2584(GLONASS),2025-042A,EARTH,TEME,UTC,SGP4,2026-05-20 22:09:35.281728+00:00,2.13103738,0.00061333,65.0698,73.7284,233.0427,126.8949,0,U,63130,999,946,0.00000000000000,-0.00000007,0.0000000000000,25507.886,675.727,19145.396,19114.106,PAYLOAD,LARGE,CIS,2025-03-02,PKMTR,,5207355,324073175,0 COSMOS 2584(GLONASS),1 63130U 25042A   26140.92332502 -.00000007  00000-0  00000-0 0  9993,2 63130  65.0698  73.7284 0006133 233.0427 126.8949  2.13103738  9460,63130
3.0,GENERATED VIA SPACE-TRACK.ORG API,2026-05-25T04:06:45,18 SPCS,COSMOS 2584(GLONASS),2025-042A,EARTH,TEME,UTC,SGP4,2026-05-24 04:59:41.859168+00:00,2.13103805,0.00060498,65.0715,73.6167,232.3879,127.5503,0,U,63130,999,953,0.00000000000000,-0.00000031,0.0000000000000,25507.880,675.727,19145.177,19114.314,PAYLOAD,LARGE,CIS,2025-03-02,PKMTR,,5212715,324773035,0 COSMOS 2584(GLONASS),1 63130U 25042A   26144.20812337 -.00000031  00000-0  00000-0 0  9994,2 63130  65.0715  73.6167 0006050 232.3879 127.5503  2.13103805  9537,63130
3.0,GENERATED VIA SPACE-TRACK.ORG API,2026-05-26T10:30:27,18 SPCS,COSMOS 2584(GLONASS),2025-042A,EARTH,TEME,UTC,SGP4,2026-05-25 03:31:09.308928+00:00,2.13103815,0.00060220,65.0720,73.5848,231.8877,128.0491,0,U,63130,999,955,0.00000000000000,-0.00000041,0.0000000000000,25507.880,675.727,19145.105,19114.384,PAYLOAD,LARGE,CIS,2025-03-02,PKMTR,,5214595,325013065,0 COSMOS 2584(GLONASS),1 63130U 25042A   26145.14663552 -.00000041  00000-0  00000-0 0  9992,2 63130  65.0720  73.5848 0006022 231.8877 128.0491  2.13103815  9554,63130
